QIANFAN-210             
1 69809U 26153K   26198.21147170  .00000050  00000+0  15543-4 0  9994
2 69809  88.9925 358.8158 0008102 176.5491 183.5758 14.23252532  1835
QIANFAN-211             
1 69810U 26153L   26198.07038623  .00000049  00000+0  15311-4 0  9993
2 69810  88.9924 358.8317 0007701 173.6395 186.4896 14.23381926  1811
QIANFAN-212             
1 69811U 26153M   26197.92699998  .00000158  00000+0  59325-4 0  9999
2 69811  88.9923 358.8475 0008246 179.1542 180.9667 14.26669772  1799
QIANFAN-213             
1 69812U 26153N   26198.13737955  .00000163  00000+0  61453-4 0  9991
2 69812  88.9924 358.8232 0007979 178.3507 181.7715 14.26674155  1824
QIANFAN-214             
1 69813U 26153P   26198.06717319  .00000114  00000+0  41173-4 0  9999
2 69813  88.9924 358.8314 0008010 177.9806 182.1422 14.26715307  1814
QIANFAN-215             
1 69814U 26153Q   26198.13728036  .00000129  00000+0  47244-4 0  9997
2 69814  88.9923 358.8229 0008100 179.1491 180.9718 14.26718671  1825
QIANFAN-216             
1 69815U 26153R   26198.13727315  .00000053  00000+0  15908-4 0  9995
2 69815  88.9924 358.8232 0008061 178.9478 181.1734 14.26719748  1826
QIANFAN-217             
1 69816U 26153S   26198.13683218 -.00000020  00000+0 -14269-4 0  9994
2 69816  88.9918 358.8232 0007752 176.4932 183.6317 14.26767980  1829
QIANFAN-218             
1 69817U 26153T   26198.13646134  .00000108  00000+0  38606-4 0  9997
2 69817  88.9925 358.8233 0007546 172.7901 187.3403 14.26810963  1822
CZ-6A R/B               
1 69818U 26153U   26198.11053976  .00000149  00000+0  29754-4 0  9991
2 69818  89.0165 358.7513 0087041  80.5895 280.5140 14.53449105  1850
STARLINK-37520          
1 69819U 26154A   26198.16668980  .00010849  00000+0  58443-4 0  9990
2 69819  53.1584 283.0718 0001599  78.6700 349.6854 15.80871510  2986
STARLINK-37553          
1 69820U 26154B   26198.16668980  .00022696  00000+0  11827-3 0  9999
2 69820  53.1585 283.0628 0000808 102.5259 330.1022 15.80864836  2982
STARLINK-37561          
1 69821U 26154C   26198.16668980  .00038061  00000+0  19566-3 0  9991
2 69821  53.1585 283.0535 0001185  94.7811 342.1204 15.80856958  2986
STARLINK-37521          
1 69822U 26154D   26198.16668980  .00015165  00000+0  80261-4 0  9993
2 69822  53.1586 283.0449 0001142  92.8843 348.2868 15.80866806  2985
STARLINK-37628          
1 69823U 26154E   26198.16668980  .00036196  00000+0  18630-3 0  9991
2 69823  53.1587 283.0360 0001118  87.2152 358.2318 15.80856448  2985
STARLINK-37695          
1 69824U 26154F   26198.16668980  .00053651  00000+0  27437-3 0  9992
2 69824  53.1588 282.9546 0000414 137.5077 347.4415 15.80817283  2986
STARLINK-37690          
1 69825U 26154G   26198.16668980  .00026529  00000+0  13757-3 0  9997
2 69825  53.1587 283.0189 0001118  98.8064 355.1784 15.80867177  2980
STARLINK-37710          
1 69826U 26154H   26198.16668980  .00013454  00000+0  71613-4 0  9997
2 69826  53.1586 283.0100 0001016  93.4243   4.8327 15.80868646  2983
STARLINK-38031          
1 69827U 26154J   26198.16668980 -.00024110  00000+0 -11885-3 0  9995
2 69827  53.1585 283.0009 0000711  72.1105  30.4056 15.80892462  2980
STARLINK-38001          
1 69828U 26154K   26198.16668980  .00039292  00000+0  20182-3 0  9991
2 69828  53.1623 282.9920 0001217  88.1717  18.6217 15.80860262  2982
STARLINK-37622          
1 69829U 26154L   26198.16668980  .00034899  00000+0  17976-3 0  9997
2 69829  53.1621 282.9832 0001089  82.4274  28.6430 15.80858419  2984
STARLINK-37621          
1 69830U 26154M   26198.16668980  .00059964  00000+0  30568-3 0  9991
2 69830  53.1620 282.9743 0000762  93.4678  21.8758 15.80841884  2989
STARLINK-37918          
1 69831U 26154N   26198.16668980  .00033194  00000+0  17119-3 0  9996
2 69831  53.1586 282.9654 0001072 101.7651  17.8539 15.80858005  2986
STARLINK-37887          
1 69832U 26154P   26198.16668980 -.00021884  00000+0 -10728-3 0  9991
2 69832  53.1586 282.9568 0000718  66.2665  57.5394 15.80940194  2988
STARLINK-37624          
1 69833U 26154Q   26198.16668980  .00073108  00000+0  37151-3 0  9995
2 69833  53.1619 282.9475 0000924  85.9532  42.2127 15.80831714  2985
STARLINK-37769          
1 69834U 26154R   26198.16668980  .00001634  00000+0  11814-4 0  9990
2 69834  53.1584 282.9389 0001245  91.4295  40.9959 15.80880158  2980
STARLINK-37247          
1 69835U 26154S   26198.16668980  .00107363  00000+0  54106-3 0  9997
2 69835  53.1586 282.9304 0001515  50.1791  86.3921 15.80860182  3083
STARLINK-37569          
1 69836U 26154T   26198.16668980  .00032793  00000+0  16919-3 0  9992
2 69836  53.1587 282.9212 0001053  95.2655  45.7130 15.80854703  2980
STARLINK-37587          
1 69837U 26154U   26198.16668980 -.00009537  00000+0 -44795-4 0  9999
2 69837  53.1584 282.9124 0001288  78.1112  67.1310 15.80888894  2951
STARLINK-37590          
1 69838U 26154V   26198.16668980  .00009451  00000+0  51358-4 0  9996
2 69838  53.1585 282.9036 0000808 113.6495  35.8642 15.80878195  2820
