OBJECT_NAME,OBJECT_ID,EPOCH,MEAN_MOTION,ECCENTRICITY,INCLINATION,RA_OF_ASC_NODE,ARG_OF_PERICENTER,MEAN_ANOMALY,EPHEMERIS_TYPE,CLASSIFICATION_TYPE,NORAD_CAT_ID,ELEMENT_SET_NO,REV_AT_EPOCH,BSTAR,MEAN_MOTION_DOT,MEAN_MOTION_DDOT
QIANFAN-210,2026-153K,2026-07-17T05:04:31.154880,14.23252532,.0008102,88.9925,358.8158,176.5491,183.5758,0,U,69809,999,183,.15543E-4,.5E-6,0
QIANFAN-211,2026-153L,2026-07-17T01:41:21.370272,14.23381926,.0007701,88.9924,358.8317,173.6395,186.4896,0,U,69810,999,181,.15311E-4,.49E-6,0
QIANFAN-212,2026-153M,2026-07-16T22:14:52.798272,14.26669772,.0008246,88.9923,358.8475,179.1542,180.9667,0,U,69811,999,179,.59325E-4,.158E-5,0
QIANFAN-213,2026-153N,2026-07-17T03:17:49.593120,14.26674155,.0007979,88.9924,358.8232,178.3507,181.7715,0,U,69812,999,182,.61453E-4,.163E-5,0
QIANFAN-214,2026-153P,2026-07-17T01:36:43.763616,14.26715307,.000801,88.9924,358.8314,177.9806,182.1422,0,U,69813,999,181,.41173E-4,.114E-5,0
QIANFAN-215,2026-153Q,2026-07-17T03:17:41.023104,14.26718671,.00081,88.9923,358.8229,179.1491,180.9718,0,U,69814,999,182,.47244E-4,.129E-5,0
QIANFAN-216,2026-153R,2026-07-17T03:17:40.400160,14.26719748,.0008061,88.9924,358.8232,178.9478,181.1734,0,U,69815,999,182,.15908E-4,.53E-6,0
QIANFAN-217,2026-153S,2026-07-17T03:17:02.300352,14.26767980,.0007752,88.9918,358.8232,176.4932,183.6317,0,U,69816,999,182,-.14269E-4,-.2E-6,0
QIANFAN-218,2026-153T,2026-07-17T03:16:30.259776,14.26810963,.0007546,88.9925,358.8233,172.7901,187.3403,0,U,69817,999,182,.38606E-4,.108E-5,0
CZ-6A R/B,2026-153U,2026-07-17T02:39:10.635264,14.53449105,.0087041,89.0165,358.7513,80.5895,280.5140,0,U,69818,999,185,.29754E-4,.149E-5,0
STARLINK-37520,2026-154A,2026-07-17T04:00:01.998720,15.80871510,.0001599,53.1584,283.0718,78.6700,349.6854,0,U,69819,999,298,.58443E-4,.10849E-3,0
STARLINK-37553,2026-154B,2026-07-17T04:00:01.998720,15.80864836,.0000808,53.1585,283.0628,102.5259,330.1022,0,U,69820,999,298,.11827E-3,.22696E-3,0
STARLINK-37561,2026-154C,2026-07-17T04:00:01.998720,15.80856958,.0001185,53.1585,283.0535,94.7811,342.1204,0,U,69821,999,298,.19566E-3,.38061E-3,0
STARLINK-37521,2026-154D,2026-07-17T04:00:01.998720,15.80866806,.0001142,53.1586,283.0449,92.8843,348.2868,0,U,69822,999,298,.80261E-4,.15165E-3,0
STARLINK-37628,2026-154E,2026-07-17T04:00:01.998720,15.80856448,.0001118,53.1587,283.0360,87.2152,358.2318,0,U,69823,999,298,.1863E-3,.36196E-3,0
STARLINK-37695,2026-154F,2026-07-17T04:00:01.998720,15.80817283,.0000414,53.1588,282.9546,137.5077,347.4415,0,U,69824,999,298,.27437E-3,.53651E-3,0
STARLINK-37690,2026-154G,2026-07-17T04:00:01.998720,15.80867177,.0001118,53.1587,283.0189,98.8064,355.1784,0,U,69825,999,298,.13757E-3,.26529E-3,0
STARLINK-37710,2026-154H,2026-07-17T04:00:01.998720,15.80868646,.0001016,53.1586,283.0100,93.4243,4.8327,0,U,69826,999,298,.71613E-4,.13454E-3,0
STARLINK-38031,2026-154J,2026-07-17T04:00:01.998720,15.80892462,.0000711,53.1585,283.0009,72.1105,30.4056,0,U,69827,999,298,-.11885E-3,-.2411E-3,0
STARLINK-38001,2026-154K,2026-07-17T04:00:01.998720,15.80860262,.0001217,53.1623,282.9920,88.1717,18.6217,0,U,69828,999,298,.20182E-3,.39292E-3,0
STARLINK-37622,2026-154L,2026-07-17T04:00:01.998720,15.80858419,.0001089,53.1621,282.9832,82.4274,28.6430,0,U,69829,999,298,.17976E-3,.34899E-3,0
STARLINK-37621,2026-154M,2026-07-17T04:00:01.998720,15.80841884,.0000762,53.1620,282.9743,93.4678,21.8758,0,U,69830,999,298,.30568E-3,.59964E-3,0
STARLINK-37918,2026-154N,2026-07-17T04:00:01.998720,15.80858005,.0001072,53.1586,282.9654,101.7651,17.8539,0,U,69831,999,298,.17119E-3,.33194E-3,0
STARLINK-37887,2026-154P,2026-07-17T04:00:01.998720,15.80940194,.0000718,53.1586,282.9568,66.2665,57.5394,0,U,69832,999,298,-.10728E-3,-.21884E-3,0
STARLINK-37624,2026-154Q,2026-07-17T04:00:01.998720,15.80831714,.0000924,53.1619,282.9475,85.9532,42.2127,0,U,69833,999,298,.37151E-3,.73108E-3,0
STARLINK-37769,2026-154R,2026-07-17T04:00:01.998720,15.80880158,.0001245,53.1584,282.9389,91.4295,40.9959,0,U,69834,999,298,.11814E-4,.1634E-4,0
STARLINK-37247,2026-154S,2026-07-17T04:00:01.998720,15.80860182,.0001515,53.1586,282.9304,50.1791,86.3921,0,U,69835,999,308,.54106E-3,.107363E-2,0
STARLINK-37569,2026-154T,2026-07-17T04:00:01.998720,15.80854703,.0001053,53.1587,282.9212,95.2655,45.7130,0,U,69836,999,298,.16919E-3,.32793E-3,0
STARLINK-37587,2026-154U,2026-07-17T04:00:01.998720,15.80888894,.0001288,53.1584,282.9124,78.1112,67.1310,0,U,69837,999,295,-.44795E-4,-.9537E-4,0
STARLINK-37590,2026-154V,2026-07-17T04:00:01.998720,15.80878195,.0000808,53.1585,282.9036,113.6495,35.8642,0,U,69838,999,282,.51358E-4,.9451E-4,0
